SL-3 R/B                
1 19046U 88032B   24035.52401674  .00005175  00000+0  33315-3 0  9999
2 19046  97.4371  21.2279 0033177   1.1609 358.9691 15.08330391936455
SL-16 R/B               
1 19120U 88039B   24035.61405693  .00000209  00000+0  12213-3 0  9991
2 19120  71.0125 243.9044 0019695  70.1949 290.1298 14.19374829849951
COSMOS 1953             
1 19210U 88050A   24035.48388727  .00006043  00000+0  34057-3 0  9999
2 19210  82.5139 197.8970 0014463 275.2161  84.7420 15.12934039921639
SL-8 R/B                
1 19257U 88053B   24035.59692538  .00000353  00000+0  12501-3 0  9991
2 19257  74.0467  79.9750 0018852  89.7718  22.7943 14.38049098866727
COSMOS 1975             
1 19573U 88093A   24035.37802653  .00006592  00000+0  37987-3 0  9999
2 19573  82.5296 155.2910 0015397 322.8878  37.1287 15.12136401903289
SL-14 R/B               
1 19574U 88093B   24035.50986755  .00000781  00000+0  90086-4 0  9995
2 19574  82.5299  38.6152 0022459  47.6442  68.9095 14.84224564887625
SL-16 R/B               
1 19650U 88102B   24035.58472176 -.00000015  00000+0  16747-4 0  9999
2 19650  71.0017 319.0001 0011858  94.8731 265.3746 14.15942944818720
INTERCOSMOS 24          
1 20261U 89080A   24035.60623517  .00000992  00000+0  29713-3 0  9994
2 20261  82.6031 240.8067 1195980 263.4837  82.9046 12.57580407570679
SL-14 R/B               
1 20262U 89080C   24035.22396008  .00000318  00000+0  87087-4 0  9996
2 20262  82.5952 303.8117 1235095 131.0838 240.3782 12.49575859564632
DELTA 1 R/B             
1 20323U 89089B   24035.47974022  .00000920  00000+0  24282-3 0  9994
2 20323  97.1013 351.0535 0071180  14.7435 345.5816 14.49254485784980
ARIANE 40 R/B           
1 20443U 90005H   24035.16269720  .00000349  00000+0  12745-3 0  9991
2 20443  98.4115 103.4808 0009931 347.0446  13.0485 14.38775551782821
DELTA 2 R/B(1)          
1 20453U 90008B   24035.11679120  .00013013  00000+0  53948-3 0  9991
2 20453  35.6208 289.3889 0221071 310.6191  47.5488 15.03624035809294
COSMOS 2058             
1 20465U 90010A   24035.61703247  .00003112  00000+0  23359-3 0  9992
2 20465  82.4851  73.8888 0015254  45.9648 314.2831 15.02219310827162
SL-14 R/B               
1 20466U 90010B   24035.61626783  .00000573  00000+0  68740-4 0  9994
2 20466  82.5008 264.2835 0018951 298.4773  61.4532 14.82227533815245
SL-14 R/B               
1 20511U 90018B   24035.58421234  .00000664  00000+0  82796-4 0  9991
2 20511  82.5201 216.6287 0018147  84.6549 275.6735 14.80851290809446
HST                     
1 20580U 90037B   24035.54747848  .00005997  00000+0  29601-3 0  9995
2 20580  28.4678 159.1341 0002817  31.3445 328.7314 15.15787679656724
SL-16 R/B               
1 20625U 90046B   24035.61080064 -.00000245  00000+0 -10216-3 0  9998
2 20625  70.9991 102.3616 0013487  15.4501 344.7030 14.14803435740319
COSMOS 2084             
1 20663U 90055A   24035.45296133  .00003236  00000+0  25429-3 0  9991
2 20663  62.7913  47.3519 0124128 107.5154 253.9551 14.97151743821538
SL-6 R/B(2)             
1 20666U 90055D   24035.20016467  .00002820  00000+0  23523-3 0  9998
2 20666  62.7857 321.8749 0103893 129.6296 231.4027 14.96963864823468
SL-8 R/B                
1 20775U 90078B   24035.52273313  .00012715  00000+0  52739-3 0  9999
2 20775  82.9172 200.7224 0490015   2.1294 358.1831 14.55363625696859
SL-8 R/B                
1 21088U 91006B   24035.45429394  .00000206  00000+0  19212-3 0  9994
2 21088  82.9427  18.5048 0023066  19.1862  92.4855 13.77314668658865
OKEAN-3                 
1 21397U 91039A   24035.34653005  .00004452  00000+0  38277-3 0  9998
2 21397  82.5221 353.1675 0018170  45.4875 314.7828 14.97079568750364
COSMOS 2151             
1 21422U 91042A   24035.61639844  .00002090  00000+0  18830-3 0  9995
2 21422  82.4981  97.8291 0015082 112.7346 247.5471 14.95041201748827
SL-14 R/B               
1 21423U 91042B   24035.55535174  .00000708  00000+0  89191-4 0  9993
2 21423  82.4919 216.1137 0016267 227.5401 132.4438 14.80574524739959
ERS-1                   
1 21574U 91050A   24035.58913060  .00000473  00000+0  16959-3 0  9996
2 21574  98.7681  24.3499 0031799 309.0311  50.8046 14.38375976705847
ARIANE 40 R/B           
1 21610U 91050F   24035.42090926  .00000492  00000+0  16391-3 0  9998
2 21610  98.3086 101.1046 0002520 208.6939 151.4112 14.41675839708823
INTERCOSMOS 25          
1 21819U 91086A   24035.44133727  .00003142  00000+0  63264-3 0  9993
2 21819  82.6019  50.7437 1502459 319.8654  30.0310 12.08199111404241
SL-8 R/B                
1 21876U 92008B   24035.58003080  .00000085  00000+0  71913-4 0  9998
2 21876  82.9273 115.9630 0036146 108.2710   5.2633 13.75791366604345
SL-8 R/B                
1 21938U 92020B   24035.46574260  .00000042  00000+0  28430-4 0  9990
2 21938  82.9325   1.3050 0027734 271.2508 211.7840 13.75388863596073
COSMOS 2219             
1 22219U 92076A   24035.55709156  .00000375  00000+0  22267-3 0  9998
2 22219  71.0608 175.1595 0020114 286.0190  73.8717 14.13826506610362
SL-16 R/B               
1 22220U 92076B   24035.34764032 -.00000157  00000+0 -54449-4 0  9999
2 22220  71.0017 358.1710 0013130 191.0530 330.2261 14.16621612613577
COSMOS 2221             
1 22236U 92080A   24035.20403762  .00002129  00000+0  21285-3 0  9996
2 22236  82.5066 288.3718 0014274 230.3713 129.6247 14.90948660666666
SL-16 R/B               
1 22285U 92093B   24035.60069452  .00000161  00000+0  10706-3 0  9992
2 22285  71.0223 168.0362 0003694 359.3708   0.7410 14.15226331605044
COSMOS 2228             
1 22286U 92094A   24035.58792495  .00002229  00000+0  22033-3 0  9994
2 22286  82.5167 245.7506 0020022 350.4663   9.6173 14.91346054661931
SL-16 R/B               
1 22566U 93016B   24035.35744346  .00000170  00000+0  11224-3 0  9990
2 22566  71.0079  20.2631 0008761  36.9998 323.1727 14.15099575594039
COSMOS 2242             
1 22626U 93024A   24035.12438278  .00001955  00000+0  19443-3 0  9998
2 22626  82.5198 274.9479 0018074 354.4207   5.6807 14.91067793666236
SL-16 R/B               
1 22803U 93059B   24035.59055244  .00000280  00000+0  16297-3 0  9996
2 22803  70.9898 182.1885 0019329 291.6642  68.2423 14.16991193571287
ARIANE 40 R/B           
1 22830U 93061H   24035.19882102  .00000309  00000+0  13155-3 0  9998
2 22830  98.5886 104.3278 0011237  28.5268 331.6528 14.31981407584655
COSMOS 2278             
1 23087U 94023A   24035.27752397  .00000239  00000+0  15025-3 0  9993
2 23087  71.0565 334.0090 0006753 124.1455 236.0309 14.14048351536736
SL-16 R/B               
1 23088U 94023B   24035.56042911 -.00000207  00000+0 -82555-4 0  9990
2 23088  70.9969 235.4062 0003457 336.7423  23.3543 14.14815653538006
SL-16 R/B               
1 23343U 94074B   24035.63163975  .00000698  00000+0  10397-3 0  9998
2 23343  97.8086  82.8802 0006795 173.0044 305.2639 14.77832412574338
SL-16 R/B               
1 23405U 94077B   24035.55595636 -.00000211  00000+0 -83804-4 0  9991
2 23405  70.9834 159.8446 0005023 258.1371 101.9188 14.15360506508104
ERS-2                   
1 23560U 95021A   24035.55302197  .00470312  86835-4  15378-2 0  9996
2 23560  98.5153  49.9075 0005243 124.4656 235.7110 15.90575292545317
ARIANE 40+ R/B          
1 23561U 95021B   24035.61475407  .00000424  00000+0  15276-3 0  9995
2 23561  98.5452 102.7885 0005827 266.9258 222.4189 14.38692664509330
SL-16 R/B               
1 23705U 95058B   24035.31450667  .00000300  00000+0  17858-3 0  9994
2 23705  71.0242 344.8131 0013636 213.0919 146.9352 14.15285395459699
SL-16 R/B               
1 24298U 96051B   24035.30892007 -.00000155  00000+0 -57378-4 0  9995
2 24298  70.8180 351.4486 0016340 191.4428 168.6323 14.12504014413712
ORBVIEW 2 (SEASTAR)     
1 24883U 97037A   24035.36039359  .00000538  00000+0  20748-3 0  9992
2 24883  98.7519 173.3823 0002899 134.7021 225.4400 14.34348024398852
SL-16 R/B               
1 25400U 98043G   24035.42881530  .00000125  00000+0  71235-4 0  9999
2 25400  98.7319 336.9071 0010940  74.9508 285.2881 14.25695631330075
SL-16 R/B               
1 25407U 98045B   24035.27114602  .00000200  00000+0  12563-3 0  9992
2 25407  71.0128 348.8717 0005444 120.5059 239.6602 14.15966945318882
ISS (ZARYA)             
1 25544U 98067A   24035.71359296  .00013141  00000+0  24197-3 0  9991
2 25544  51.6408 256.7762 0002364 196.3815 272.5298 15.49506484437857
CZ-4B R/B               
1 25732U 99025C   24035.62578979  .00000077  00000+0  58838-4 0  9990
2 25732  98.7729  82.5163 0037588  20.2640  92.1478 14.17912646279878
OKEAN-O                 
1 25860U 99039A   24035.60242838  .00001053  00000+0  15293-3 0  9999
2 25860  98.0573  88.0967 0000825  75.1348 284.9954 14.78075377321428
SL-16 R/B               
1 25861U 99039B   24035.56295516  .00000838  00000+0  11847-3 0  9997
2 25861  98.1095  80.4301 0014690 205.9437 154.1040 14.79789637323770
DELTA 2 R/B             
1 25876U 99041E   24035.50405095  .00003539  00000+0  62466-3 0  9999
2 25876  51.7662 104.3095 0519682 259.8643  94.3301 14.07492719255227
HELIOS 1B               
1 25977U 99064A   24035.61665552  .00001133  00000+0  14310-3 0  9997
2 25977  98.2645 262.6788 0002115  55.6141 304.5271 14.83965580571808
TERRA                   
1 25994U 99068A   24035.63379520  .00000664  00000+0  14916-3 0  9999
2 25994  98.0668 102.9647 0002991  74.2467  46.4311 14.59570750283564
SL-16 R/B               
1 26070U 00006B   24035.08908199  .00000173  00000+0  11260-3 0  9992
2 26070  71.0013 265.2806 0018919 266.0624  93.8337 14.15603538240344
TITAN 4B R/B            
1 26474U 00047B   24035.36703041  .00003581  00000+0  28425-3 0  9992
2 26474  67.9936  15.8834 0049832 181.9283 178.1679 15.00746988277870
ENVISAT                 
1 27386U 02009A   24035.48756966  .00000239  00000+0  91935-4 0  9996
2 27386  98.2644   1.3619 0001203  90.1313  19.9191 14.38494128149282
